{"fetched_at":"2026-07-12T05:52:33.815Z","source":"https://celestrak.org/NORAD/elements/gp.php?GROUP=oneweb&FORMAT=JSON","constellation":"oneweb","records":[{"OBJECT_NAME":"ONEWEB-0116","OBJECT_ID":"2021-025E","EPOCH":"2026-07-11T19:23:45.273696","CLASSIFICATION_TYPE":"U","MEAN_MOTION":13.13468996,"ECCENTRICITY":0.0001826,"INCLINATION":87.8986,"RA_OF_ASC_NODE":315.3192,"ARG_OF_PERICENTER":100.527,"MEAN_ANOMALY":259.6065,"EPHEMERIS_TYPE":0,"NORAD_CAT_ID":48046,"ELEMENT_SET_NO":999,"REV_AT_EPOCH":25688,"BSTAR":0.000066987,"MEAN_MOTION_DOT":3.7e-7,"MEAN_MOTION_DDOT":0},{"OBJECT_NAME":"ONEWEB-0150","OBJECT_ID":"2021-025F","EPOCH":"2026-07-11T20:39:19.797120","CLASSIFICATION_TYPE":"U","MEAN_MOTION":13.13470299,"ECCENTRICITY":0.0001831,"INCLINATION":87.8982,"RA_OF_ASC_NODE":315.3064,"ARG_OF_PERICENTER":96.5237,"MEAN_ANOMALY":263.6101,"EPHEMERIS_TYPE":0,"NORAD_CAT_ID":48047,"ELEMENT_SET_NO":999,"REV_AT_EPOCH":25678,"BSTAR":0.00076555,"MEAN_MOTION_DOT":0.00000292,"MEAN_MOTION_DDOT":0},{"OBJECT_NAME":"ONEWEB-0107","OBJECT_ID":"2021-025G","EPOCH":"2026-07-11T20:41:46.660704","CLASSIFICATION_TYPE":"U","MEAN_MOTION":13.13472212,"ECCENTRICITY":0.0002149,"INCLINATION":87.8983,"RA_OF_ASC_NODE":315.3019,"ARG_OF_PERICENTER":98.5511,"MEAN_ANOMALY":261.5862,"EPHEMERIS_TYPE":0,"NORAD_CAT_ID":48048,"ELEMENT_SET_NO":999,"REV_AT_EPOCH":25676,"BSTAR":0.00067446,"MEAN_MOTION_DOT":0.00000259,"MEAN_MOTION_DDOT":0},{"OBJECT_NAME":"ONEWEB-0101","OBJECT_ID":"2021-025H","EPOCH":"2026-07-11T19:48:07.822656","CLASSIFICATION_TYPE":"U","MEAN_MOTION":13.13470773,"ECCENTRICITY":0.000209,"INCLINATION":87.8975,"RA_OF_ASC_NODE":315.3221,"ARG_OF_PERICENTER":101.5123,"MEAN_ANOMALY":258.6241,"EPHEMERIS_TYPE":0,"NORAD_CAT_ID":48049,"ELEMENT_SET_NO":999,"REV_AT_EPOCH":25673,"BSTAR":-0.000742,"MEAN_MOTION_DOT":-0.00000258,"MEAN_MOTION_DDOT":0},{"OBJECT_NAME":"ONEWEB-0113","OBJECT_ID":"2021-025J","EPOCH":"2026-07-11T20:11:47.774688","CLASSIFICATION_TYPE":"U","MEAN_MOTION":13.1389163,"ECCENTRICITY":0.0001887,"INCLINATION":87.8978,"RA_OF_ASC_NODE":315.2269,"ARG_OF_PERICENTER":95.3377,"MEAN_ANOMALY":264.7968,"EPHEMERIS_TYPE":0,"NORAD_CAT_ID":48050,"ELEMENT_SET_NO":999,"REV_AT_EPOCH":25684,"BSTAR":-0.00058421,"MEAN_MOTION_DOT":-0.00000202,"MEAN_MOTION_DDOT":0},{"OBJECT_NAME":"ONEWEB-0112","OBJECT_ID":"2021-025K","EPOCH":"2026-07-11T20:49:04.802880","CLASSIFICATION_TYPE":"U","MEAN_MOTION":13.13468852,"ECCENTRICITY":0.0002177,"INCLINATION":87.8986,"RA_OF_ASC_NODE":315.2987,"ARG_OF_PERICENTER":102.5202,"MEAN_ANOMALY":257.6171,"EPHEMERIS_TYPE":0,"NORAD_CAT_ID":48051,"ELEMENT_SET_NO":999,"REV_AT_EPOCH":25683,"BSTAR":0.00060512,"MEAN_MOTION_DOT":0.00000234,"MEAN_MOTION_DDOT":0},{"OBJECT_NAME":"ONEWEB-0156","OBJECT_ID":"2021-025L","EPOCH":"2026-07-11T19:11:34.028160","CLASSIFICATION_TYPE":"U","MEAN_MOTION":13.13471655,"ECCENTRICITY":0.0002032,"INCLINATION":87.8987,"RA_OF_ASC_NODE":315.3218,"ARG_OF_PERICENTER":97.1783,"MEAN_ANOMALY":262.9577,"EPHEMERIS_TYPE":0,"NORAD_CAT_ID":48052,"ELEMENT_SET_NO":999,"REV_AT_EPOCH":25680,"BSTAR":0.00074217,"MEAN_MOTION_DOT":0.00000284,"MEAN_MOTION_DDOT":0},{"OBJECT_NAME":"ONEWEB-0161","OBJECT_ID":"2021-025M","EPOCH":"2026-07-11T20:24:41.414112","CLASSIFICATION_TYPE":"U","MEAN_MOTION":13.13470397,"ECCENTRICITY":0.0002015,"INCLINATION":87.8985,"RA_OF_ASC_NODE":315.3128,"ARG_OF_PERICENTER":96.0175,"MEAN_ANOMALY":264.1183,"EPHEMERIS_TYPE":0,"NORAD_CAT_ID":48053,"ELEMENT_SET_NO":999,"REV_AT_EPOCH":25674,"BSTAR":0.00015593,"MEAN_MOTION_DOT":7e-7,"MEAN_MOTION_DDOT":0},{"OBJECT_NAME":"ONEWEB-0158","OBJECT_ID":"2021-025N","EPOCH":"2026-07-11T19:26:12.601248","CLASSIFICATION_TYPE":"U","MEAN_MOTION":13.13464534,"ECCENTRICITY":0.0001865,"INCLINATION":87.8985,"RA_OF_ASC_NODE":315.3196,"ARG_OF_PERICENTER":103.4877,"MEAN_ANOMALY":256.646,"EPHEMERIS_TYPE":0,"NORAD_CAT_ID":48054,"ELEMENT_SET_NO":999,"REV_AT_EPOCH":25686,"BSTAR":0.00017332,"MEAN_MOTION_DOT":7.6e-7,"MEAN_MOTION_DDOT":0},{"OBJECT_NAME":"ONEWEB-0157","OBJECT_ID":"2021-025P","EPOCH":"2026-07-11T20:02:45.053952","CLASSIFICATION_TYPE":"U","MEAN_MOTION":13.13472044,"ECCENTRICITY":0.0002211,"INCLINATION":87.8979,"RA_OF_ASC_NODE":315.3182,"ARG_OF_PERICENTER":97.6047,"MEAN_ANOMALY":262.5333,"EPHEMERIS_TYPE":0,"NORAD_CAT_ID":48055,"ELEMENT_SET_NO":999,"REV_AT_EPOCH":25680,"BSTAR":-0.00064167,"MEAN_MOTION_DOT":-0.00000222,"MEAN_MOTION_DDOT":0},{"OBJECT_NAME":"ONEWEB-0162","OBJECT_ID":"2021-025Q","EPOCH":"2026-07-11T19:28:26.438304","CLASSIFICATION_TYPE":"U","MEAN_MOTION":13.13468817,"ECCENTRICITY":0.0002049,"INCLINATION":87.8989,"RA_OF_ASC_NODE":315.3231,"ARG_OF_PERICENTER":107.2978,"MEAN_ANOMALY":252.8375,"EPHEMERIS_TYPE":0,"NORAD_CAT_ID":48056,"ELEMENT_SET_NO":999,"REV_AT_EPOCH":25677,"BSTAR":-0.0001429,"MEAN_MOTION_DOT":-3.9e-7,"MEAN_MOTION_DDOT":0},{"OBJECT_NAME":"ONEWEB-0155","OBJECT_ID":"2021-025R","EPOCH":"2026-07-11T19:38:24.270144","CLASSIFICATION_TYPE":"U","MEAN_MOTION":13.13472847,"ECCENTRICITY":0.0002044,"INCLINATION":87.8979,"RA_OF_ASC_NODE":315.3193,"ARG_OF_PERICENTER":95.7428,"MEAN_ANOMALY":264.3934,"EPHEMERIS_TYPE":0,"NORAD_CAT_ID":48057,"ELEMENT_SET_NO":999,"REV_AT_EPOCH":25691,"BSTAR":-0.0006336,"MEAN_MOTION_DOT":-0.00000219,"MEAN_MOTION_DDOT":0},{"OBJECT_NAME":"ONEWEB-0149","OBJECT_ID":"2021-025S","EPOCH":"2026-07-11T20:10:04.384128","CLASSIFICATION_TYPE":"U","MEAN_MOTION":13.13470216,"ECCENTRICITY":0.0001912,"INCLINATION":87.8982,"RA_OF_ASC_NODE":315.3185,"ARG_OF_PERICENTER":92.9829,"MEAN_ANOMALY":267.1519,"EPHEMERIS_TYPE":0,"NORAD_CAT_ID":48058,"ELEMENT_SET_NO":999,"REV_AT_EPOCH":25672,"BSTAR":-0.00059222,"MEAN_MOTION_DOT":-0.00000204,"MEAN_MOTION_DDOT":0},{"OBJECT_NAME":"ONEWEB-0148","OBJECT_ID":"2021-025T","EPOCH":"2026-07-11T19:16:26.645088","CLASSIFICATION_TYPE":"U","MEAN_MOTION":13.13469185,"ECCENTRICITY":0.0001991,"INCLINATION":87.8979,"RA_OF_ASC_NODE":315.3315,"ARG_OF_PERICENTER":93.0193,"MEAN_ANOMALY":267.1164,"EPHEMERIS_TYPE":0,"NORAD_CAT_ID":48059,"ELEMENT_SET_NO":999,"REV_AT_EPOCH":25684,"BSTAR":0.0005898,"MEAN_MOTION_DOT":0.00000228,"MEAN_MOTION_DDOT":0},{"OBJECT_NAME":"ONEWEB-0160","OBJECT_ID":"2021-025U","EPOCH":"2026-07-11T19:40:48.482112","CLASSIFICATION_TYPE":"U","MEAN_MOTION":13.13468819,"ECCENTRICITY":0.0001381,"INCLINATION":87.8982,"RA_OF_ASC_NODE":315.3235,"ARG_OF_PERICENTER":117.2437,"MEAN_ANOMALY":242.8832,"EPHEMERIS_TYPE":0,"NORAD_CAT_ID":48060,"ELEMENT_SET_NO":999,"REV_AT_EPOCH":25679,"BSTAR":-0.00067383,"MEAN_MOTION_DOT":-0.00000233,"MEAN_MOTION_DDOT":0},{"OBJECT_NAME":"ONEWEB-0163","OBJECT_ID":"2021-025V","EPOCH":"2026-07-11T19:18:52.857216","CLASSIFICATION_TYPE":"U","MEAN_MOTION":13.13468553,"ECCENTRICITY":0.0002197,"INCLINATION":87.8986,"RA_OF_ASC_NODE":315.323,"ARG_OF_PERICENTER":99.3666,"MEAN_ANOMALY":260.7712,"EPHEMERIS_TYPE":0,"NORAD_CAT_ID":48061,"ELEMENT_SET_NO":999,"REV_AT_EPOCH":25691,"BSTAR":0.00055429,"MEAN_MOTION_DOT":0.00000215,"MEAN_MOTION_DDOT":0}]}
